#*******************************************************************************
#Ephemeris / WWW_USER Wed Dec  9 11:07:52 2020 Pasadena, USA      / Horizons    
#*******************************************************************************
#Target body name: 101583 (1999 BF10)              {source: JPL#24}
#Center body name: Earth (399)                     {source: DE431}
#Center-site name: Mauna Kea
#*******************************************************************************
#Start time      : A.D. 2018-Nov-14 00:00:00.0000 UT      
#Stop  time      : A.D. 2018-Dec-14 00:00:00.0000 UT      
#Step-size       : 60 minutes
#*******************************************************************************
#Target pole/equ : No model available
#Target radii    : (unavailable)                                                
#Center geodetic : 204.527800,19.8260847,4.2102393 {E-lon(deg),Lat(deg),Alt(km)}
#Center cylindric: 204.527800,6006.35451,2151.0229 {E-lon(deg),Dxy(km),Dz(km)}
#Center pole/equ : High-precision EOP model        {East-longitude positive}
#Center radii    : 6378.1 x 6378.1 x 6356.8 km     {Equator, meridian, pole}    
#Target primary  : Sun
#Vis. interferer : MOON (R_eq= 1737.400) km        {source: DE431}
#Rel. light bend : Sun, EARTH                      {source: DE431}
#Rel. lght bnd GM: 1.3271E+11, 3.9860E+05 km^3/s^2                              
#Small-body perts: Yes                             {source: SB431-N16}
#Atmos refraction: NO (AIRLESS)
#RA format       : DEG
#Time format     : JD  
#EOP file        : eop.201208.p210301                                           
#EOP coverage    : DATA-BASED 1962-JAN-20 TO 2020-DEC-08. PREDICTS-> 2021-FEB-28
#Units conversion: 1 au= 149597870.700 km, c= 299792.458 km/s, 1 day= 86400.0 s 
#Table cut-offs 1: Elevation (-90.0deg=NO ),Airmass (>38.000=NO), Daylight (NO )
#Table cut-offs 2: Solar elongation (  0.0,180.0=NO ),Local Hour Angle( 0.0=NO )
#Table cut-offs 3: RA/DEC angular rate (     0.0=NO )                           
#*******************************************************************************
#Initial IAU76/J2000 heliocentric ecliptic osculating elements (au, days, deg.):
#  EPOCH=  2457225.5 ! 2015-Jul-22.00 (TDB)         Residual RMS= .27127        
#   EC= .1016538277330891   QR= 2.306382726576485   TP= 2457200.118066729       
#   OM= 137.4869567035342   W=  353.2637321847961   IN= 7.215318800630471       
#  Equivalent ICRF heliocentric equatorial cartesian coordinates (au, au/d):
#   X=-1.721704422047005E+00  Y= 1.408989074602450E+00  Z= 6.150418746318230E-01
#  VX=-7.954494807110990E-03 VY=-8.573057775875635E-03 VZ=-2.090525305345881E-03
#Asteroid physical parameters (km, seconds, rotational period in hours):        
#   GM= n.a.                RAD= n.a.               ROTPER= n.a.                
#   H= 15.                  G= .150                 B-V= n.a.                   
#                           ALBEDO= n.a.            STYP= n.a.                  
#**************************************************************************************
#Date_________JDUT     R.A._______(ICRF)_______DEC   APmag   S-brt    S-O-T /r    S-T-O
#**************************************************************************************
#$$SOE
2458458.958333333      54.636272455   7.787621398  18.443    n.a. 157.2912 /T   8.9323
2458459.000000000      54.627096281   7.787367313  18.444    n.a. 157.2474 /T   8.9488
2458459.041666667      54.618001695   7.787107991  18.445    n.a. 157.2036 /T   8.9653
2458459.083333333      54.609005543   7.786846421  18.446    n.a. 157.1599 /T   8.9818
2458459.125000000      54.600118403   7.786586072  18.447    n.a. 157.1163 /T   8.9982
2458459.166666667 N    54.591343865   7.786330656  18.448    n.a. 157.0729 /T   9.0145
2458459.208333333 *m   54.582678284   7.786083869  18.448    n.a. 157.0297 /T   9.0307
2458459.250000000 *m   54.574111040   7.785849144  18.449    n.a. 156.9867 /T   9.0468
2458459.291666667 *m   54.565625260   7.785629409  18.450    n.a. 156.9438 /T   9.0629
2458459.333333333 *m   54.557198987   7.785426890  18.451    n.a. 156.9011 /T   9.0790
2458459.375000000 *m   54.548806684   7.785242960  18.452    n.a. 156.8585 /T   9.0950
2458459.416666667 *m   54.540420986   7.785078043  18.453    n.a. 156.8160 /T   9.1110
2458459.458333333 *m   54.532014584   7.784931585  18.453    n.a. 156.7735 /T   9.1271
2458459.500000000 *m   54.523562092   7.784802095  18.454    n.a. 156.7310 /T   9.1431
2458459.541666667 *m   54.515041793   7.784687243  18.455    n.a. 156.6883 /T   9.1592
2458459.583333333 *m   54.506437128   7.784584026  18.456    n.a. 156.6456 /T   9.1754
2458459.625000000 *m   54.497737834   7.784488968  18.457    n.a. 156.6026 /T   9.1917
2458459.666666667 C    54.488940645   7.784398362  18.458    n.a. 156.5595 /T   9.2080
2458459.708333333 A    54.480049520   7.784308526  18.459    n.a. 156.5161 /T   9.2244
2458459.750000000      54.471075368   7.784216051  18.459    n.a. 156.4725 /T   9.2409
2458459.791666667      54.462035305   7.784118037  18.460    n.a. 156.4287 /T   9.2574
2458459.833333333      54.452951477   7.784012295  18.461    n.a. 156.3847 /T   9.2741
2458459.875000000      54.443849540   7.783897493  18.462    n.a. 156.3405 /T   9.2907
2458459.916666667      54.434756902   7.783773249  18.463    n.a. 156.2963 /T   9.3074
2458459.958333333      54.425700845   7.783640156  18.464    n.a. 156.2519 /T   9.3240
2458460.000000000      54.416706651   7.783499744  18.465    n.a. 156.2076 /T   9.3407
2458460.041666667      54.407795871   7.783354372  18.465    n.a. 156.1633 /T   9.3573
2458460.083333333      54.398984849   7.783207067  18.466    n.a. 156.1191 /T   9.3738
2458460.125000000      54.390283602   7.783061318  18.467    n.a. 156.0750 /T   9.3902
2458460.166666667 N    54.381695137   7.782920832  18.468    n.a. 156.0311 /T   9.4066
2458460.208333333 *m   54.373215248   7.782789284  18.469    n.a. 155.9875 /T   9.4229
2458460.250000000 *m   54.364832808   7.782670064  18.470    n.a. 155.9439 /T   9.4392
2458460.291666667 *m   54.356530533   7.782566045  18.471    n.a. 155.9006 /T   9.4553
2458460.333333333 *m   54.348286175   7.782479383  18.472    n.a. 155.8574 /T   9.4715
2458460.375000000 *m   54.340074045   7.782411376  18.472    n.a. 155.8144 /T   9.4876
2458460.416666667 *m   54.331866780   7.782362368  18.473    n.a. 155.7714 /T   9.5036
2458460.458333333 *m   54.323637221   7.782331731  18.474    n.a. 155.7285 /T   9.5197
2458460.500000000 *m   54.315360273   7.782317907  18.475    n.a. 155.6855 /T   9.5359
2458460.541666667 *m   54.307014632   7.782318514  18.476    n.a. 155.6424 /T   9.5521
2458460.583333333 *m   54.298584241   7.782330509  18.477    n.a. 155.5992 /T   9.5683
2458460.625000000 *m   54.290059398   7.782350399  18.477    n.a. 155.5558 /T   9.5846
2458460.666666667 Cm   54.281437415   7.782374481  18.478    n.a. 155.5122 /T   9.6010
2458460.708333333 A    54.272722810   7.782399094  18.479    n.a. 155.4683 /T   9.6175
2458460.750000000      54.263926990   7.782420868  18.480    n.a. 155.4243 /T   9.6341
2458460.791666667      54.255067474   7.782436963  18.481    n.a. 155.3800 /T   9.6507
2458460.833333333      54.246166690   7.782445255  18.482    n.a. 155.3356 /T   9.6674
2458460.875000000      54.237250436   7.782444489  18.483    n.a. 155.2909 /T   9.6841
2458460.916666667      54.228346109   7.782434360  18.483    n.a. 155.2462 /T   9.7008
2458460.958333333      54.219480830   7.782415535  18.484    n.a. 155.2014 /T   9.7175
2458461.000000000      54.210679583   7.782389610  18.485    n.a. 155.1567 /T   9.7342
2458461.041666667      54.201963500   7.782358997  18.486    n.a. 155.1120 /T   9.7508
2458461.083333333      54.193348417   7.782326757  18.487    n.a. 155.0673 /T   9.7674
2458461.125000000      54.184843789   7.782296397  18.488    n.a. 155.0229 /T   9.7839
2458461.166666667 N    54.176452044   7.782271620  18.489    n.a. 154.9786 /T   9.8003
2458461.208333333 *    54.168168420   7.782256079  18.490    n.a. 154.9345 /T   9.8167
2458461.250000000 *m   54.159981297   7.782253122  18.490    n.a. 154.8906 /T   9.8329
2458461.291666667 *m   54.151872992   7.782265564  18.491    n.a. 154.8469 /T   9.8491
2458461.333333333 *m   54.143820983   7.782295493  18.492    n.a. 154.8034 /T   9.8653
2458461.375000000 *m   54.135799445   7.782344130  18.493    n.a. 154.7600 /T   9.8814
2458461.416666667 *m   54.127781034   7.782411743  18.494    n.a. 154.7166 /T   9.8975
2458461.458333333 *m   54.119738756   7.782497630  18.495    n.a. 154.6733 /T   9.9137
2458461.500000000 *m   54.111647819   7.782600165  18.496    n.a. 154.6299 /T   9.9298
2458461.541666667 *m   54.103487341   7.782716915  18.496    n.a. 154.5865 /T   9.9460
2458461.583333333 *m   54.095241774   7.782844802  18.497    n.a. 154.5429 /T   9.9623
2458461.625000000 *m   54.086901975   7.782980315  18.498    n.a. 154.4992 /T   9.9787
2458461.666666667 Cm   54.078465834   7.783119753  18.499    n.a. 154.4552 /T   9.9951
2458461.708333333 Am   54.069938418   7.783259479  18.500    n.a. 154.4110 /T  10.0116
2458461.750000000      54.061331619   7.783396165  18.501    n.a. 154.3666 /T  10.0282
2458461.791666667      54.052663348   7.783527026  18.502    n.a. 154.3219 /T  10.0448
2458461.833333333      54.043956298   7.783650008  18.502    n.a. 154.2771 /T  10.0616
2458461.875000000      54.035236390   7.783763930  18.503    n.a. 154.2321 /T  10.0783
2458461.916666667      54.026530996   7.783868563  18.504    n.a. 154.1870 /T  10.0950
2458461.958333333      54.017867062   7.783964649  18.505    n.a. 154.1419 /T  10.1118
2458462.000000000      54.009269258   7.784053847  18.506    n.a. 154.0968 /T  10.1285
2458462.041666667      54.000758291   7.784138620  18.507    n.a. 154.0518 /T  10.1451
2458462.083333333      53.992349484   7.784222066  18.508    n.a. 154.0068 /T  10.1617
2458462.125000000      53.984051728   7.784307705  18.509    n.a. 153.9620 /T  10.1782
